{"type": "FeatureCollection", "features": [ {"type": "Feature", "properties": {"norad_id": 33939, "name": "COSMOS 2251 DEB", "group": "cosmos-2251-debris", "lat": 10.027649779130998, "lon": -120.34860383421615, "alt_km": 569.3938712130939, "timestamp": "2025-12-21T14:40:48.311881+00:00", "meta": {"OBJECT_NAME": "COSMOS 2251 DEB", "OBJECT_ID": "1993-036EU", "EPOCH": "2025-12-21T05:55:35.718816", "MEAN_MOTION": 15.00430548, "ECCENTRICITY": 0.00045998, "INCLINATION": 74.0063, "RA_OF_ASC_NODE": 63.3013, "ARG_OF_PERICENTER": 25.9375, "MEAN_ANOMALY": 334.2042, "EPHEMERIS_TYPE": 0, "CLASSIFICATION_TYPE": "U", "NORAD_CAT_ID": 33939, "ELEMENT_SET_NO": 999, "REV_AT_EPOCH": 88880, "BSTAR": 0.0020789816, "MEAN_MOTION_DOT": 0.00026218, "MEAN_MOTION_DDOT": 0}, "tle": {"line1": "1 33939U 93036EU  25355.24694119  .00026218  00000+0  20790-2 0  9992", "line2": "2 33939  74.0063  63.3013 0004599  25.9375 334.2042 15.00430548888803"}}, "geometry": {"type": "Point", "coordinates": [-120.34860383421615, 10.027649779130998]}}, {"type": "Feature", "properties": {"norad_id": 33940, "name": "COSMOS 2251 DEB", "group": "cosmos-2251-debris", "lat": 56.04336630454747, "lon": 151.75385089591003, "alt_km": 697.6268483983622, "timestamp": "2025-12-21T14:40:48.311891+00:00", "meta": {"OBJECT_NAME": "COSMOS 2251 DEB", "OBJECT_ID": "1993-036EV", "EPOCH": "2025-12-20T19:23:55.850784", "MEAN_MOTION": 14.58863748, "ECCENTRICITY": 0.00109392, "INCLINATION": 74.0394, "RA_OF_ASC_NODE": 128.1332, "ARG_OF_PERICENTER": 208.5936, "MEAN_ANOMALY": 313.5769, "EPHEMERIS_TYPE": 0, "CLASSIFICATION_TYPE": "U", "NORAD_CAT_ID": 33940, "ELEMENT_SET_NO": 999, "REV_AT_EPOCH": 88711, "BSTAR": 0.00068787791, "MEAN_MOTION_DOT": 3.195e-05, "MEAN_MOTION_DDOT": 0}, "tle": {"line1": "1 33940U 93036EV  25354.80828531  .00003195  00000+0  68788-3 0  9991", "line2": "2 33940  74.0394 128.1332 0010939 208.5936 313.5769 14.58863748887116"}}, "geometry": {"type": "Point", "coordinates": [151.75385089591003, 56.04336630454747]}}, {"type": "Feature", "properties": {"norad_id": 33942, "name": "COSMOS 2251 DEB", "group": "cosmos-2251-debris", "lat": -45.76824525211823, "lon": -118.6086616950642, "alt_km": 758.488803284923, "timestamp": "2025-12-21T14:40:48.311901+00:00", "meta": {"OBJECT_NAME": "COSMOS 2251 DEB", "OBJECT_ID": "1993-036EX", "EPOCH": "2025-12-21T03:45:50.053248", "MEAN_MOTION": 14.37999524, "ECCENTRICITY": 0.00206662, "INCLINATION": 74.0365, "RA_OF_ASC_NODE": 259.3276, "ARG_OF_PERICENTER": 341.0297, "MEAN_ANOMALY": 137.3083, "EPHEMERIS_TYPE": 0, "CLASSIFICATION_TYPE": "U", "NORAD_CAT_ID": 33942, "ELEMENT_SET_NO": 999, "REV_AT_EPOCH": 88255, "BSTAR": 0.00015790073, "MEAN_MOTION_DOT": 4.52e-06, "MEAN_MOTION_DDOT": 0}, "tle": {"line1": "1 33942U 93036EX  25355.15682932  .00000452  00000+0  15790-3 0  9993", "line2": "2 33942  74.0365 259.3276 0020666 341.0297 137.3083 14.37999524882554"}}, "geometry": {"type": "Point", "coordinates": [-118.6086616950642, -45.76824525211823]}}, {"type": "Feature", "properties": {"norad_id": 33944, "name": "COSMOS 2251 DEB", "group": "cosmos-2251-debris", "lat": 12.509463014700652, "lon": 108.96368341696329, "alt_km": 826.4111831536557, "timestamp": "2025-12-21T14:40:48.311911+00:00", "meta": {"OBJECT_NAME": "COSMOS 2251 DEB", "OBJECT_ID": "1993-036EZ", "EPOCH": "2025-12-21T06:15:05.554944", "MEAN_MOTION": 14.37361147, "ECCENTRICITY": 0.01125476, "INCLINATION": 74.0407, "RA_OF_ASC_NODE": 293.2497, "ARG_OF_PERICENTER": 30.67, "MEAN_ANOMALY": 118.8167, "EPHEMERIS_TYPE": 0, "CLASSIFICATION_TYPE": "U", "NORAD_CAT_ID": 33944, "ELEMENT_SET_NO": 999, "REV_AT_EPOCH": 88150, "BSTAR": 0.00028919178, "MEAN_MOTION_DOT": 9.02e-06, "MEAN_MOTION_DDOT": 0}, "tle": {"line1": "1 33944U 93036EZ  25355.26048096  .00000902  00000+0  28919-3 0  9991", "line2": "2 33944  74.0407 293.2497 0112547  30.6700 118.8167 14.37361147881500"}}, "geometry": {"type": "Point", "coordinates": [108.96368341696329, 12.509463014700652]}}, {"type": "Feature", "properties": {"norad_id": 33945, "name": "COSMOS 2251 DEB", "group": "cosmos-2251-debris", "lat": -48.38455572403579, "lon": 128.81655457206074, "alt_km": 795.5708086558543, "timestamp": "2025-12-21T14:40:48.311921+00:00", "meta": {"OBJECT_NAME": "COSMOS 2251 DEB", "OBJECT_ID": "1993-036FA", "EPOCH": "2025-12-21T05:14:18.363840", "MEAN_MOTION": 14.34607041, "ECCENTRICITY": 0.00222717, "INCLINATION": 74.0302, "RA_OF_ASC_NODE": 290.7314, "ARG_OF_PERICENTER": 14.7734, "MEAN_ANOMALY": 345.4064, "EPHEMERIS_TYPE": 0, "CLASSIFICATION_TYPE": "U", "NORAD_CAT_ID": 33945, "ELEMENT_SET_NO": 999, "REV_AT_EPOCH": 88137, "BSTAR": 0.00010607503, "MEAN_MOTION_DOT": 2.74e-06, "MEAN_MOTION_DDOT": 0}, "tle": {"line1": "1 33945U 93036FA  25355.21826810  .00000274  00000+0  10608-3 0  9993", "line2": "2 33945  74.0302 290.7314 0022271  14.7734 345.4064 14.34607041881371"}}, "geometry": {"type": "Point", "coordinates": [128.81655457206074, -48.38455572403579]}}, {"type": "Feature", "properties": {"norad_id": 33948, "name": "COSMOS 2251 DEB", "group": "cosmos-2251-debris", "lat": 62.06475342566956, "lon": 76.18421788668624, "alt_km": 772.3398564725921, "timestamp": "2025-12-21T14:40:48.311932+00:00", "meta": {"OBJECT_NAME": "COSMOS 2251 DEB", "OBJECT_ID": "1993-036FD", "EPOCH": "2025-12-21T05:47:38.503968", "MEAN_MOTION": 14.35638545, "ECCENTRICITY": 0.0023112, "INCLINATION": 74.036, "RA_OF_ASC_NODE": 289.5353, "ARG_OF_PERICENTER": 3.3107, "MEAN_ANOMALY": 356.8194, "EPHEMERIS_TYPE": 0, "CLASSIFICATION_TYPE": "U", "NORAD_CAT_ID": 33948, "ELEMENT_SET_NO": 999, "REV_AT_EPOCH": 88145, "BSTAR": 0.00015520503, "MEAN_MOTION_DOT": 4.23e-06, "MEAN_MOTION_DDOT": 0}, "tle": {"line1": "1 33948U 93036FD  25355.24141787  .00000423  00000+0  15521-3 0  9997", "line2": "2 33948  74.0360 289.5353 0023112   3.3107 356.8194 14.35638545881453"}}, "geometry": {"type": "Point", "coordinates": [76.18421788668624, 62.06475342566956]}}, {"type": "Feature", "properties": {"norad_id": 33971, "name": "COSMOS 2251 DEB", "group": "cosmos-2251-debris", "lat": -46.14384595405351, "lon": -140.00915809006673, "alt_km": 753.5329837738373, "timestamp": "2025-12-21T14:40:48.311942+00:00", "meta": {"OBJECT_NAME": "COSMOS 2251 DEB", "OBJECT_ID": "1993-036FE", "EPOCH": "2025-12-21T03:57:31.252320", "MEAN_MOTION": 14.39738677, "ECCENTRICITY": 0.00188756, "INCLINATION": 74.0243, "RA_OF_ASC_NODE": 238.1624, "ARG_OF_PERICENTER": 337.2094, "MEAN_ANOMALY": 179.8953, "EPHEMERIS_TYPE": 0, "CLASSIFICATION_TYPE": "U", "NORAD_CAT_ID": 33971, "ELEMENT_SET_NO": 999, "REV_AT_EPOCH": 88260, "BSTAR": 0.00018889732, "MEAN_MOTION_DOT": 5.66e-06, "MEAN_MOTION_DDOT": 0}, "tle": {"line1": "1 33971U 93036FE  25355.16494505  .00000566  00000+0  18890-3 0  9993", "line2": "2 33971  74.0243 238.1624 0018875 337.2094 179.8953 14.39738677882609"}}, "geometry": {"type": "Point", "coordinates": [-140.00915809006673, -46.14384595405351]}}, {"type": "Feature", "properties": {"norad_id": 33972, "name": "COSMOS 2251 DEB", "group": "cosmos-2251-debris", "lat": 38.9050074072766, "lon": -19.069429093931856, "alt_km": 849.9174224513963, "timestamp": "2025-12-21T14:40:48.311952+00:00", "meta": {"OBJECT_NAME": "COSMOS 2251 DEB", "OBJECT_ID": "1993-036FF", "EPOCH": "2025-12-20T07:06:08.155872", "MEAN_MOTION": 14.3627436, "ECCENTRICITY": 0.0123671, "INCLINATION": 73.9935, "RA_OF_ASC_NODE": 176.7482, "ARG_OF_PERICENTER": 342.8449, "MEAN_ANOMALY": 195.3138, "EPHEMERIS_TYPE": 0, "CLASSIFICATION_TYPE": "U", "NORAD_CAT_ID": 33972, "ELEMENT_SET_NO": 999, "REV_AT_EPOCH": 87182, "BSTAR": 0.00083133088, "MEAN_MOTION_DOT": 2.623e-05, "MEAN_MOTION_DDOT": 0}, "tle": {"line1": "1 33972U 93036FF  25354.29592773  .00002623  00000+0  83133-3 0  9991", "line2": "2 33972  73.9935 176.7482 0123671 342.8449 195.3138 14.36274360871823"}}, "geometry": {"type": "Point", "coordinates": [-19.069429093931856, 38.9050074072766]}}, {"type": "Feature", "properties": {"norad_id": 33973, "name": "COSMOS 2251 DEB", "group": "cosmos-2251-debris", "lat": -0.536281674881795, "lon": -93.51760140804282, "alt_km": 738.9375621037625, "timestamp": "2025-12-21T14:40:48.311963+00:00", "meta": {"OBJECT_NAME": "COSMOS 2251 DEB", "OBJECT_ID": "1993-036FG", "EPOCH": "2025-12-21T05:40:01.688160", "MEAN_MOTION": 14.45399335, "ECCENTRICITY": 0.00473931, "INCLINATION": 74.0086, "RA_OF_ASC_NODE": 87.0295, "ARG_OF_PERICENTER": 263.8953, "MEAN_ANOMALY": 123.779, "EPHEMERIS_TYPE": 0, "CLASSIFICATION_TYPE": "U", "NORAD_CAT_ID": 33973, "ELEMENT_SET_NO": 999, "REV_AT_EPOCH": 88723, "BSTAR": 0.00011784463, "MEAN_MOTION_DOT": 3.92e-06, "MEAN_MOTION_DDOT": 0}, "tle": {"line1": "1 33973U 93036FG  25355.23613065  .00000392  00000+0  11784-3 0  9999", "line2": "2 33973  74.0086  87.0295 0047393 263.8953 123.7790 14.45399335887238"}}, "geometry": {"type": "Point", "coordinates": [-93.51760140804282, -0.536281674881795]}}, {"type": "Feature", "properties": {"norad_id": 33975, "name": "COSMOS 2251 DEB", "group": "cosmos-2251-debris", "lat": 48.33928734885286, "lon": -130.21041133080962, "alt_km": 840.80436773578, "timestamp": "2025-12-21T14:40:48.311973+00:00", "meta": {"OBJECT_NAME": "COSMOS 2251 DEB", "OBJECT_ID": "1993-036FJ", "EPOCH": "2025-12-20T22:37:29.231616", "MEAN_MOTION": 14.00539881, "ECCENTRICITY": 0.0191039, "INCLINATION": 73.8017, "RA_OF_ASC_NODE": 70.0336, "ARG_OF_PERICENTER": 201.6662, "MEAN_ANOMALY": 157.6312, "EPHEMERIS_TYPE": 0, "CLASSIFICATION_TYPE": "U", "NORAD_CAT_ID": 33975, "ELEMENT_SET_NO": 999, "REV_AT_EPOCH": 85944, "BSTAR": 0.00038248, "MEAN_MOTION_DOT": 6.4e-06, "MEAN_MOTION_DDOT": 0}, "tle": {"line1": "1 33975U 93036FJ  25354.94269944  .00000640  00000+0  38248-3 0  9991", "line2": "2 33975  73.8017  70.0336 0191039 201.6662 157.6312 14.00539881859444"}}, "geometry": {"type": "Point", "coordinates": [-130.21041133080962, 48.33928734885286]}}]}